[
  {
    "KeyID": 1,
    "PHARMACY_NAME": "1 STOP PHARMACY",
    "ADDRESS_1": "1220 AVE P",
    "CITY": "BROOKLYN",
    "STATE": "NY",
    "ZIP_CODE": 11229,
    "PHONE": 7183362244,
    "lat": 0,
    "long": 0,
    "distance": 0.1
  },
  {
    "KeyID": 2,
    "PHARMACY_NAME": "10 PARK PHARMACY",
    "ADDRESS_1": "53 E 34TH ST",
    "CITY": "NEW YORK",
    "STATE": "NY",
    "ZIP_CODE": 10016,
    "PHONE": 2126833838,
    "lat": 0,
    "long": 0,
    "distance": 0.4
  },
  {
    "KeyID": 3,
    "PHARMACY_NAME": "101 FIRST CARE PHARMACY INC",
    "ADDRESS_1": "126-14 101 AVE",
    "CITY": "RICHMOND HILL",
    "STATE": "NY",
    "ZIP_CODE": 11419,
    "PHONE": 7188802346,
    "lat": 0,
    "long": 0,
    "distance": 0.7
  },
  {
    "KeyID": 4,
    "PHARMACY_NAME": "103 PHARMACY",
    "ADDRESS_1": "2002 2ND AVE",
    "CITY": "NEW YORK",
    "STATE": "NY",
    "ZIP_CODE": 10029,
    "PHONE": 2124104410,
    "lat": 0,
    "long": 0,
    "distance": 1
  },
  {
    "KeyID": 5,
    "PHARMACY_NAME": "110 PHARMACY AND SURGICAL",
    "ADDRESS_1": "459 WALT WHITMAN RD",
    "CITY": "MELVILLE",
    "STATE": "NY",
    "ZIP_CODE": 11747,
    "PHONE": 6314215454,
    "lat": 0,
    "long": 0,
    "distance": 1.3
  },
  {
    "KeyID": 6,
    "PHARMACY_NAME": "112 PHARMACY & SURGICAL",
    "ADDRESS_1": "689 MEDFORD AVE",
    "CITY": "PATCHOGUE",
    "STATE": "NY",
    "ZIP_CODE": 117721347,
    "PHONE": 6312892468,
    "lat": 0,
    "long": 0,
    "distance": 1.6
  },
  {
    "KeyID": 7,
    "PHARMACY_NAME": "133RD ST PHARMACY INC",
    "ADDRESS_1": "1473 AMSTERDAM AVE",
    "CITY": "NEW YORK",
    "STATE": "NY",
    "ZIP_CODE": 10027,
    "PHONE": 2124914911,
    "lat": 0,
    "long": 0,
    "distance": 1.9
  },
  {
    "KeyID": 8,
    "PHARMACY_NAME": "139 PHARMACY INC",
    "ADDRESS_1": "3419 BROADWAY",
    "CITY": "NEW YORK",
    "STATE": "NY",
    "ZIP_CODE": 10031,
    "PHONE": 2122836623,
    "lat": 0,
    "long": 0,
    "distance": 2.2
  },
  {
    "KeyID": 9,
    "PHARMACY_NAME": "13TH AVE PHARMACY INC.",
    "ADDRESS_1": "5211 13TH AVE",
    "CITY": "BROOKLYN",
    "STATE": "NY",
    "ZIP_CODE": 112193814,
    "PHONE": 7188719777,
    "lat": 0,
    "long": 0,
    "distance": 2.5
  },
  {
    "KeyID": 10,
    "PHARMACY_NAME": "1413 FULTON STREET PHARMACY",
    "ADDRESS_1": "1413 FULTON ST",
    "CITY": "BROOKLYN",
    "STATE": "NY",
    "ZIP_CODE": 112162607,
    "PHONE": 7187898083,
    "lat": 0,
    "long": 0,
    "distance": 2.8
  },
  {
    "KeyID": 11,
    "PHARMACY_NAME": "145TH ST PHARMACY",
    "ADDRESS_1": "300 WEST 145TH STREET",
    "CITY": "NEW YORK",
    "STATE": "NY",
    "ZIP_CODE": 10039,
    "PHONE": 2122813480,
    "lat": 0,
    "long": 0,
    "distance": 3.1
  },
  {
    "KeyID": 12,
    "PHARMACY_NAME": "161 ST. PHARMACY & SURGICAL SUPPLIES",
    "ADDRESS_1": "275 E 161ST ST",
    "CITY": "BRONX",
    "STATE": "NY",
    "ZIP_CODE": 10451,
    "PHONE": 7187423400,
    "lat": 0,
    "long": 0,
    "distance": 3.4
  },
  {
    "KeyID": 13,
    "PHARMACY_NAME": "167ST PHARMACY",
    "ADDRESS_1": "1150 WEBSTER AVE",
    "CITY": "BRONX",
    "STATE": "NY",
    "ZIP_CODE": 104565205,
    "PHONE": 7189750142,
    "lat": 0,
    "long": 0,
    "distance": 3.7
  },
  {
    "KeyID": 14,
    "PHARMACY_NAME": "1699 FANCY PHARMACY INC",
    "ADDRESS_1": "131 ESSEX ST",
    "CITY": "NEW YORK",
    "STATE": "NY",
    "ZIP_CODE": 10002,
    "PHONE": 2125295217,
    "lat": 0,
    "long": 0,
    "distance": 4
  },
  {
    "KeyID": 15,
    "PHARMACY_NAME": "18 PHARMACY INC.",
    "ADDRESS_1": "18 ELIZABETH ST",
    "CITY": "NEW YORK",
    "STATE": "NY",
    "ZIP_CODE": 100134802,
    "PHONE": 2125710027,
    "lat": 0,
    "long": 0,
    "distance": 4.3
  },
  {
    "KeyID": 16,
    "PHARMACY_NAME": "18TH AVE PHARMACY CORP",
    "ADDRESS_1": "5411 18TH AVE",
    "CITY": "BROOKLYN",
    "STATE": "NY",
    "ZIP_CODE": 11204,
    "PHONE": 7183313600,
    "lat": 0,
    "long": 0,
    "distance": 4.6
  },
  {
    "KeyID": 17,
    "PHARMACY_NAME": "1ST AID PHARMACY AND SURGICAL SUPPLY",
    "ADDRESS_1": "23 WEST FORDHAM RD",
    "CITY": "BRONX",
    "STATE": "NY",
    "ZIP_CODE": 10468,
    "PHONE": 7184503555,
    "lat": 0,
    "long": 0,
    "distance": 4.9
  },
  {
    "KeyID": 18,
    "PHARMACY_NAME": "1ST BRONXCARE PHARMACY INC",
    "ADDRESS_1": "438 E 149TH ST",
    "CITY": "BRONX",
    "STATE": "NY",
    "ZIP_CODE": 104551304,
    "PHONE": 7188439891,
    "lat": 0,
    "long": 0,
    "distance": 5.2
  },
  {
    "KeyID": 19,
    "PHARMACY_NAME": "2000 NINOS PHARMACY",
    "ADDRESS_1": "3663 BROADWAY",
    "CITY": "NEW YORK",
    "STATE": "NY",
    "ZIP_CODE": 10031,
    "PHONE": 2124912910,
    "lat": 0,
    "long": 0,
    "distance": 5.5
  },
  {
    "KeyID": 20,
    "PHARMACY_NAME": "21 AVE PHARMACY AND MEDICAL SUPPLY",
    "ADDRESS_1": "8511 21ST AVE",
    "CITY": "BROOKLYN",
    "STATE": "NY",
    "ZIP_CODE": 11214,
    "PHONE": 7184494949,
    "lat": 0,
    "long": 0,
    "distance": 5.8
  }
]
